{
  "type": "FeatureCollection",
  "features": [
    {
      "type": "Feature",
      "properties": {
        "norad_id": 58701,
        "name": "TIANMU-1 16",
        "group": "weather",
        "lat": 65.95045016339182,
        "lon": 163.05366298464835,
        "alt_km": 488.5854106130164,
        "timestamp": "2025-12-25T07:41:09.366841+00:00",
        "meta_object_name": "TIANMU-1 16",
        "meta_object_id": "2024-004B",
        "meta_epoch": "2025-12-24T23:30:59.784768",
        "meta_mean_motion": 15.24593734,
        "meta_eccentricity": 0.00044103,
        "meta_inclination": 97.4569,
        "meta_ra_of_asc_node": 179.7825,
        "meta_arg_of_pericenter": 240.2372,
        "meta_mean_anomaly": 119.8428,
        "meta_ephemeris_type": 0,
        "meta_classification_type": "U",
        "meta_norad_cat_id": 58701,
        "meta_element_set_no": 999,
        "meta_rev_at_epoch": 10921,
        "meta_bstar": 0.00031097672,
        "meta_mean_motion_dot": 7.597e-05,
        "meta_mean_motion_ddot": 0,
        "tle_line1": "1 58701U 24004B   25358.97985862  .00007597  00000+0  31098-3 0  9999",
        "tle_line2": "2 58701  97.4569 179.7825 0004410 240.2372 119.8428 15.24593734109210"
      },
      "geometry": {
        "type": "Point",
        "coordinates": [
          163.05366298464835,
          65.95045016339182
        ]
      }
    },
    {
      "type": "Feature",
      "properties": {
        "norad_id": 58702,
        "name": "TIANMU-1 17",
        "group": "weather",
        "lat": 26.0948629555401,
        "lon": 4.21742592964133,
        "alt_km": 490.8902597974302,
        "timestamp": "2025-12-25T07:41:09.366851+00:00",
        "meta_object_name": "TIANMU-1 17",
        "meta_object_id": "2024-004C",
        "meta_epoch": "2025-12-24T23:08:18.585600",
        "meta_mean_motion": 15.24636998,
        "meta_eccentricity": 0.00035701,
        "meta_inclination": 97.4602,
        "meta_ra_of_asc_node": 180.183,
        "meta_arg_of_pericenter": 241.1952,
        "meta_mean_anomaly": 118.8927,
        "meta_ephemeris_type": 0,
        "meta_classification_type": "U",
        "meta_norad_cat_id": 58702,
        "meta_element_set_no": 999,
        "meta_rev_at_epoch": 10920,
        "meta_bstar": 0.00029480276,
        "meta_mean_motion_dot": 7.207e-05,
        "meta_mean_motion_ddot": 0,
        "tle_line1": "1 58702U 24004C   25358.96410400  .00007207  00000+0  29480-3 0  9990",
        "tle_line2": "2 58702  97.4602 180.1830 0003570 241.1952 118.8927 15.24636998109203"
      },
      "geometry": {
        "type": "Point",
        "coordinates": [
          4.21742592964133,
          26.0948629555401
        ]
      }
    },
    {
      "type": "Feature",
      "properties": {
        "norad_id": 58703,
        "name": "TIANMU-1 18",
        "group": "weather",
        "lat": -63.50897013055821,
        "lon": -14.511502947350928,
        "alt_km": 497.12604177169214,
        "timestamp": "2025-12-25T07:41:09.366863+00:00",
        "meta_object_name": "TIANMU-1 18",
        "meta_object_id": "2024-004D",
        "meta_epoch": "2025-12-24T22:44:27.355776",
        "meta_mean_motion": 15.24619305,
        "meta_eccentricity": 0.00029638,
        "meta_inclination": 97.4619,
        "meta_ra_of_asc_node": 180.3645,
        "meta_arg_of_pericenter": 237.808,
        "meta_mean_anomaly": 122.287,
        "meta_ephemeris_type": 0,
        "meta_classification_type": "U",
        "meta_norad_cat_id": 58703,
        "meta_element_set_no": 999,
        "meta_rev_at_epoch": 10920,
        "meta_bstar": 0.00028778502,
        "meta_mean_motion_dot": 7.029e-05,
        "meta_mean_motion_ddot": 0,
        "tle_line1": "1 58703U 24004D   25358.94753884  .00007029  00000+0  28779-3 0  9997",
        "tle_line2": "2 58703  97.4619 180.3645 0002963 237.8080 122.2870 15.24619305109206"
      },
      "geometry": {
        "type": "Point",
        "coordinates": [
          -14.511502947350928,
          -63.50897013055821
        ]
      }
    },
    {
      "type": "Feature",
      "properties": {
        "norad_id": 58990,
        "name": "INSAT-3DS",
        "group": "weather",
        "lat": -0.031115734747536823,
        "lon": -68.52207693327351,
        "alt_km": 35781.17704907471,
        "timestamp": "2025-12-25T07:41:09.366875+00:00",
        "meta_object_name": "INSAT-3DS",
        "meta_object_id": "2024-033A",
        "meta_epoch": "2025-12-24T20:11:11.705280",
        "meta_mean_motion": 1.00271357,
        "meta_eccentricity": 0.00012445,
        "meta_inclination": 0.0597,
        "meta_ra_of_asc_node": 99.6283,
        "meta_arg_of_pericenter": 175.2991,
        "meta_mean_anomaly": 203.5912,
        "meta_ephemeris_type": 0,
        "meta_classification_type": "U",
        "meta_norad_cat_id": 58990,
        "meta_element_set_no": 999,
        "meta_rev_at_epoch": 4532,
        "meta_bstar": 0,
        "meta_mean_motion_dot": -1.35e-06,
        "meta_mean_motion_ddot": 0,
        "tle_line1": "1 58990U 24033A   25358.84110770 -.00000135  00000+0  00000+0 0  9992",
        "tle_line2": "2 58990   0.0597  99.6283 0001244 175.2991 203.5912  1.00271357 45328"
      },
      "geometry": {
        "type": "Point",
        "coordinates": [
          -68.52207693327351,
          -0.031115734747536823
        ]
      }
    },
    {
      "type": "Feature",
      "properties": {
        "norad_id": 59051,
        "name": "METEOR-M2 4",
        "group": "weather",
        "lat": 57.82986893501498,
        "lon": 150.0857403943039,
        "alt_km": 815.969079071625,
        "timestamp": "2025-12-25T07:41:09.366885+00:00",
        "meta_object_name": "METEOR-M2 4",
        "meta_object_id": "2024-039A",
        "meta_epoch": "2025-12-24T22:40:39.208800",
        "meta_mean_motion": 14.22403099,
        "meta_eccentricity": 0.00063991,
        "meta_inclination": 98.6784,
        "meta_ra_of_asc_node": 315.6634,
        "meta_arg_of_pericenter": 321.8323,
        "meta_mean_anomaly": 38.2401,
        "meta_ephemeris_type": 0,
        "meta_classification_type": "U",
        "meta_norad_cat_id": 59051,
        "meta_element_set_no": 999,
        "meta_rev_at_epoch": 9449,
        "meta_bstar": 3.7969255e-05,
        "meta_mean_motion_dot": 4.1e-07,
        "meta_mean_motion_ddot": 0,
        "tle_line1": "1 59051U 24039A   25358.94489825  .00000041  00000+0  37969-4 0  9992",
        "tle_line2": "2 59051  98.6784 315.6634 0006399 321.8323  38.2401 14.22403099 94499"
      },
      "geometry": {
        "type": "Point",
        "coordinates": [
          150.0857403943039,
          57.82986893501498
        ]
      }
    },
    {
      "type": "Feature",
      "properties": {
        "norad_id": 60133,
        "name": "GOES 19",
        "group": "weather",
        "lat": -0.00022958510734761634,
        "lon": 134.18174752183188,
        "alt_km": 35790.70873178496,
        "timestamp": "2025-12-25T07:41:09.366897+00:00",
        "meta_object_name": "GOES 19",
        "meta_object_id": "2024-119A",
        "meta_epoch": "2025-12-24T19:35:26.274912",
        "meta_mean_motion": 1.00271194,
        "meta_eccentricity": 0.00010545,
        "meta_inclination": 0.0207,
        "meta_ra_of_asc_node": 186.583,
        "meta_arg_of_pericenter": 134.5878,
        "meta_mean_anomaly": 351.091,
        "meta_ephemeris_type": 0,
        "meta_classification_type": "U",
        "meta_norad_cat_id": 60133,
        "meta_element_set_no": 999,
        "meta_rev_at_epoch": 521,
        "meta_bstar": 0,
        "meta_mean_motion_dot": -2.27e-06,
        "meta_mean_motion_ddot": 0,
        "tle_line1": "1 60133U 24119A   25358.81627633 -.00000227  00000+0  00000+0 0  9999",
        "tle_line2": "2 60133   0.0207 186.5830 0001054 134.5878 351.0910  1.00271194  5213"
      },
      "geometry": {
        "type": "Point",
        "coordinates": [
          134.18174752183188,
          -0.00022958510734761634
        ]
      }
    },
    {
      "type": "Feature",
      "properties": {
        "norad_id": 65815,
        "name": "FENGYUN 3H",
        "group": "weather",
        "lat": -65.57023544978122,
        "lon": 99.03454512823247,
        "alt_km": 833.3232591901451,
        "timestamp": "2025-12-25T07:41:09.366912+00:00",
        "meta_object_name": "FENGYUN 3H",
        "meta_object_id": "2025-219A",
        "meta_epoch": "2025-12-24T20:22:43.979232",
        "meta_mean_motion": 14.19907782,
        "meta_eccentricity": 8.348e-05,
        "meta_inclination": 98.6601,
        "meta_ra_of_asc_node": 298.1774,
        "meta_arg_of_pericenter": 108.631,
        "meta_mean_anomaly": 251.4958,
        "meta_ephemeris_type": 0,
        "meta_classification_type": "U",
        "meta_norad_cat_id": 65815,
        "meta_element_set_no": 999,
        "meta_rev_at_epoch": 1264,
        "meta_bstar": 6.3499695e-05,
        "meta_mean_motion_dot": 9.2e-07,
        "meta_mean_motion_ddot": 0,
        "tle_line1": "1 65815U 25219A   25358.84912013  .00000092  00000+0  63500-4 0  9993",
        "tle_line2": "2 65815  98.6601 298.1774 0000834 108.6310 251.4958 14.19907782 12644"
      },
      "geometry": {
        "type": "Point",
        "coordinates": [
          99.03454512823247,
          -65.57023544978122
        ]
      }
    }
  ]
}